1 47969U 21023E   21082.75814356 -.00000240  00000-0  00000+0 0  9991
2 47969  45.0033  98.4933 0011147 264.9977  94.9518 15.05241129   125
ELECTRON R/B

1 47970U 21023F   21082.93062589  .00031426  86130-5  32153-3 0  9996
2 47970  45.0074  97.2534 0190745 244.8409 113.2674 15.46493286   132
2021-023G
1 47971U 21023G   21082.54737023 -.00000335  00000-0  00000+0 0  9991
2 47971  44.9995  99.4415 0008300 279.4117  80.5860 15.37145697    87

2021-023H
1 47972U 21023H   21082.61216138 -.00000336  00000-0  00000+0 0  9990


2 47972  45.0003  99.0901 0007063 270.1276  89.8863 15.37662210   108
